start=new Date('2021-09-23T00:00:00.000Z').valueOf();
sats=[{"RA_OF_ASC_NODE":"102.4995","FILE":"3123736","EPOCH":"2021-09-22T20:00:01.000224","PERIAPSIS":"308.026","DECAY_DATE":null,"COUNTRY_CODE":"US","MEAN_MOTION":"15.83264682","LAUNCH_DATE":"2021-09-14","BSTAR":"-0.00548280000000","CLASSIFICATION_TYPE":"U","ELEMENT_SET_NO":"999","GP_ID":"185269891","ECCENTRICITY":"0.00196900","SEMIMAJOR_AXIS":"6699.352","APOAPSIS":"334.408","RCS_SIZE":null,"PERIOD":"90.951","MEAN_ANOMALY":"339.6456","EPHEMERIS_TYPE":"0","INCLINATION":"69.9999","ARG_OF_PERICENTER":"168.4336","REF_FRAME":"TEME","SITE":"AFWTR","TLE_LINE1":"1 49160U 21082AG  21265.83334491 -.01073943  00000-0 -54828-2 0  9992","OBJECT_NAME":"STARLINK-3095","MEAN_ELEMENT_THEORY":"SGP4","MEAN_MOTION_DOT":"-0.01073943","REV_AT_EPOCH":"169","CENTER_NAME":"EARTH","OBJECT_TYPE":"PAYLOAD","TIME_SYSTEM":"UTC","MEAN_MOTION_DDOT":"0.0000000000000","NORAD_CAT_ID":"49160","TLE_LINE2":"2 49160  69.9999 102.4995 0019690 168.4336 339.6456 15.83264682  1696","OBJECT_ID":"2021-082AG"},{"INCLINATION":"69.9999","ARG_OF_PERICENTER":"167.6417","REF_FRAME":"TEME","SITE":"AFWTR","TLE_LINE1":"1 49161U 21082AH  21265.83334491 -.01074177  00000-0 -55042-2 0  9992","OBJECT_NAME":"STARLINK-3080","MEAN_ELEMENT_THEORY":"SGP4","MEAN_MOTION_DOT":"-0.01074177","REV_AT_EPOCH":"169","CENTER_NAME":"EARTH","OBJECT_TYPE":"PAYLOAD","TIME_SYSTEM":"UTC","MEAN_MOTION_DDOT":"0.0000000000000","NORAD_CAT_ID":"49161","TLE_LINE2":"2 49161  69.9999 102.5023 0020138 167.6417 338.0874 15.83170015  1693","OBJECT_ID":"2021-082AH","FILE":"3123736","RA_OF_ASC_NODE":"102.5023","EPOCH":"2021-09-22T20:00:01.000224","PERIAPSIS":"307.993","DECAY_DATE":null,"MEAN_MOTION":"15.83170015","COUNTRY_CODE":"US","LAUNCH_DATE":"2021-09-14","BSTAR":"-0.00550420000000","CLASSIFICATION_TYPE":"U","ELEMENT_SET_NO":"999","GP_ID":"185270189","ECCENTRICITY":"0.00201380","SEMIMAJOR_AXIS":"6699.619","RCS_SIZE":null,"APOAPSIS":"334.976","PERIOD":"90.957","MEAN_ANOMALY":"338.0874","EPHEMERIS_TYPE":"0"},{"BSTAR":"-0.00545080000000","CLASSIFICATION_TYPE":"U","LAUNCH_DATE":"2021-09-14","DECAY_DATE":null,"COUNTRY_CODE":"US","MEAN_MOTION":"15.83362477","EPOCH":"2021-09-22T20:00:01.000224","PERIAPSIS":"307.351","RA_OF_ASC_NODE":"102.4968","FILE":"3123736","MEAN_ANOMALY":"342.8393","EPHEMERIS_TYPE":"0","PERIOD":"90.946","RCS_SIZE":null,"APOAPSIS":"334.532","SEMIMAJOR_AXIS":"6699.077","GP_ID":"185269676","ECCENTRICITY":"0.00202870","ELEMENT_SET_NO":"999","MEAN_MOTION_DOT":"-0.01073963","REV_AT_EPOCH":"169","CENTER_NAME":"EARTH","OBJECT_NAME":"STARLINK-3082","MEAN_ELEMENT_THEORY":"SGP4","REF_FRAME":"TEME","SITE":"AFWTR","TLE_LINE1":"1 49162U 21082AJ  21265.83334491 -.01073963  00000-0 -54508-2 0  9991","INCLINATION":"69.9999","ARG_OF_PERICENTER":"167.5121","OBJECT_ID":"2021-082AJ","NORAD_CAT_ID":"49162","TLE_LINE2":"2 49162  69.9999 102.4968 0020287 167.5121 342.8393 15.83362477  1691","MEAN_MOTION_DDOT":"0.0000000000000","TIME_SYSTEM":"UTC","OBJECT_TYPE":"PAYLOAD"},{"MEAN_MOTION_DOT":"-0.01074034","REV_AT_EPOCH":"169","CENTER_NAME":"EARTH","OBJECT_NAME":"STARLINK-3088","MEAN_ELEMENT_THEORY":"SGP4","REF_FRAME":"TEME","SITE":"AFWTR","TLE_LINE1":"1 49163U 21082AK  21265.83334491 -.01074034  00000-0 -54600-2 0  9995","INCLINATION":"69.9999","ARG_OF_PERICENTER":"167.4989","OBJECT_ID":"2021-082AK","NORAD_CAT_ID":"49163","TLE_LINE2":"2 49163  69.9999 102.4982 0020644 167.4989 341.7113 15.83313846  1690","TIME_SYSTEM":"UTC","MEAN_MOTION_DDOT":"0.0000000000000","OBJECT_TYPE":"PAYLOAD","LAUNCH_DATE":"2021-09-14","BSTAR":"-0.00546000000000","CLASSIFICATION_TYPE":"U","EPOCH":"2021-09-22T20:00:01.000224","PERIAPSIS":"307.249","DECAY_DATE":null,"MEAN_MOTION":"15.83313846","COUNTRY_CODE":"US","RA_OF_ASC_NODE":"102.4982","FILE":"3123736","PERIOD":"90.948","MEAN_ANOMALY":"341.7113","EPHEMERIS_TYPE":"0","APOAPSIS":"334.909","RCS_SIZE":null,"SEMIMAJOR_AXIS":"6699.214","ELEMENT_SET_NO":"999","GP_ID":"185269760","ECCENTRICITY":"0.00206440"},{"TLE_LINE2":"2 49164  69.9999 102.4911 0020489 166.8948 348.2044 15.83546142  1690","NORAD_CAT_ID":"49164","OBJECT_ID":"2021-082AL","OBJECT_TYPE":"PAYLOAD","TIME_SYSTEM":"UTC","MEAN_MOTION_DDOT":"0.0000000000000","MEAN_ELEMENT_THEORY":"SGP4","OBJECT_NAME":"STARLINK-3106","CENTER_NAME":"EARTH","REV_AT_EPOCH":"169","MEAN_MOTION_DOT":"-0.01074122","ARG_OF_PERICENTER":"166.8948","INCLINATION":"69.9999","TLE_LINE1":"1 49164U 21082AL  21265.83334491 -.01074122  00000-0 -54016-2 0  9995","REF_FRAME":"TEME","SITE":"AFWTR","APOAPSIS":"334.148","RCS_SIZE":null,"PERIOD":"90.935","EPHEMERIS_TYPE":"0","MEAN_ANOMALY":"348.2044","ELEMENT_SET_NO":"999","GP_ID":"185269570","ECCENTRICITY":"0.00204890","SEMIMAJOR_AXIS":"6698.559","PERIAPSIS":"306.699","EPOCH":"2021-09-22T20:00:01.000224","COUNTRY_CODE":"US","DECAY_DATE":null,"MEAN_MOTION":"15.83546142","LAUNCH_DATE":"2021-09-14","CLASSIFICATION_TYPE":"U","BSTAR":"-0.00540160000000","RA_OF_ASC_NODE":"102.4911","FILE":"3123736"},{"OBJECT_TYPE":"PAYLOAD","MEAN_MOTION_DDOT":"0.0000000000000","TIME_SYSTEM":"UTC","NORAD_CAT_ID":"49165","TLE_LINE2":"2 49165  69.9999 102.4955 0021158 167.1116 344.4232 15.83408435  1693","OBJECT_ID":"2021-082AM","INCLINATION":"69.9999","ARG_OF_PERICENTER":"167.1116","SITE":"AFWTR","REF_FRAME":"TEME","TLE_LINE1":"1 49165U 21082AM  21265.83334491 -.01074013  00000-0 -54294-2 0  9993","OBJECT_NAME":"STARLINK-3052","MEAN_ELEMENT_THEORY":"SGP4","MEAN_MOTION_DOT":"-0.01074013","REV_AT_EPOCH":"169","CENTER_NAME":"EARTH","ECCENTRICITY":"0.00211580","GP_ID":"185270297","ELEMENT_SET_NO":"999","SEMIMAJOR_AXIS":"6698.947","APOAPSIS":"334.986","RCS_SIZE":null,"MEAN_ANOMALY":"344.4232","EPHEMERIS_TYPE":"0","PERIOD":"90.943","RA_OF_ASC_NODE":"102.4955","FILE":"3123736","COUNTRY_CODE":"US","DECAY_DATE":null,"MEAN_MOTION":"15.83408435","EPOCH":"2021-09-22T20:00:01.000224","PERIAPSIS":"306.638","BSTAR":"-0.00542940000000","CLASSIFICATION_TYPE":"U","LAUNCH_DATE":"2021-09-14"},{"ELEMENT_SET_NO":"999","ECCENTRICITY":"0.00202320","GP_ID":"185269999","SEMIMAJOR_AXIS":"6698.678","APOAPSIS":"334.096","RCS_SIZE":null,"PERIOD":"90.938","EPHEMERIS_TYPE":"0","MEAN_ANOMALY":"346.3761","FILE":"3123736","RA_OF_ASC_NODE":"102.4927","PERIAPSIS":"306.990","EPOCH":"2021-09-22T20:00:01.000224","DECAY_DATE":null,"MEAN_MOTION":"15.83503858","COUNTRY_CODE":"US","LAUNCH_DATE":"2021-09-14","CLASSIFICATION_TYPE":"U","BSTAR":"-0.00541550000000","OBJECT_TYPE":"PAYLOAD","TIME_SYSTEM":"UTC","MEAN_MOTION_DDOT":"0.0000000000000","NORAD_CAT_ID":"49166","TLE_LINE2":"2 49166  69.9999 102.4927 0020232 167.4670 346.3761 15.83503858  1696","OBJECT_ID":"2021-082AN","ARG_OF_PERICENTER":"167.4670","INCLINATION":"69.9999","TLE_LINE1":"1 49166U 21082AN  21265.83334491 -.01074139  00000-0 -54155-2 0  9999","REF_FRAME":"TEME","SITE":"AFWTR","MEAN_ELEMENT_THEORY":"SGP4","OBJECT_NAME":"STARLINK-3089","CENTER_NAME":"EARTH","REV_AT_EPOCH":"169","MEAN_MOTION_DOT":"-0.01074139"},{"TLE_LINE2":"2 49167  69.9999 102.4941 0020348 167.4521 345.2400 15.83456221  1695","NORAD_CAT_ID":"49167","OBJECT_ID":"2021-082AP","OBJECT_TYPE":"PAYLOAD","MEAN_MOTION_DDOT":"0.0000000000000","TIME_SYSTEM":"UTC","MEAN_ELEMENT_THEORY":"SGP4","OBJECT_NAME":"STARLINK-3054","CENTER_NAME":"EARTH","MEAN_MOTION_DOT":"-0.01074114","REV_AT_EPOCH":"169","ARG_OF_PERICENTER":"167.4521","INCLINATION":"69.9999","TLE_LINE1":"1 49167U 21082AP  21265.83334491 -.01074114  00000-0 -54265-2 0  9995","REF_FRAME":"TEME","SITE":"AFWTR","RCS_SIZE":null,"APOAPSIS":"334.308","EPHEMERIS_TYPE":"0","MEAN_ANOMALY":"345.2400","PERIOD":"90.940","GP_ID":"185270083","ECCENTRICITY":"0.00203480","ELEMENT_SET_NO":"999","SEMIMAJOR_AXIS":"6698.812","MEAN_MOTION":"15.83456221","DECAY_DATE":null,"COUNTRY_CODE":"US","PERIAPSIS":"307.046","EPOCH":"2021-09-22T20:00:01.000224","CLASSIFICATION_TYPE":"U","BSTAR":"-0.00542650000000","LAUNCH_DATE":"2021-09-14","FILE":"3123736","RA_OF_ASC_NODE":"102.4941"},{"BSTAR":"-0.00536230000000","CLASSIFICATION_TYPE":"U","LAUNCH_DATE":"2021-09-14","COUNTRY_CODE":"US","DECAY_DATE":null,"MEAN_MOTION":"15.83685273","EPOCH":"2021-09-22T20:00:01.000224","PERIAPSIS":"306.082","FILE":"3123736","RA_OF_ASC_NODE":"102.4870","MEAN_ANOMALY":"351.6888","EPHEMERIS_TYPE":"0","PERIOD":"90.927","RCS_SIZE":null,"APOAPSIS":"333.981","SEMIMAJOR_AXIS":"6698.166","ECCENTRICITY":"0.00208260","GP_ID":"185269892","ELEMENT_SET_NO":"999","MEAN_MOTION_DOT":"-0.01074204","REV_AT_EPOCH":"169","CENTER_NAME":"EARTH","OBJECT_NAME":"STARLINK-3101","MEAN_ELEMENT_THEORY":"SGP4","REF_FRAME":"TEME","SITE":"AFWTR","TLE_LINE1":"1 49168U 21082AQ  21265.83334491 -.01074204  00000-0 -53623-2 0  9993","INCLINATION":"69.9999","ARG_OF_PERICENTER":"166.9101","OBJECT_ID":"2021-082AQ","TLE_LINE2":"2 49168  69.9999 102.4870 0020826 166.9101 351.6888 15.83685273  1698","NORAD_CAT_ID":"49168","MEAN_MOTION_DDOT":"0.0000000000000","TIME_SYSTEM":"UTC","OBJECT_TYPE":"PAYLOAD"},{"CENTER_NAME":"EARTH","MEAN_MOTION_DOT":"-0.01073873","REV_AT_EPOCH":"169","MEAN_ELEMENT_THEORY":"SGP4","OBJECT_NAME":"STARLINK-3046","TLE_LINE1":"1 49169U 21082AR  21265.83334491 -.01073873  00000-0 -53866-2 0  9994","SITE":"AFWTR","REF_FRAME":"TEME","ARG_OF_PERICENTER":"167.1748","INCLINATION":"69.9999","OBJECT_ID":"2021-082AR","TLE_LINE2":"2 49169  69.9999 102.4900 0020508 167.1748 348.9826 15.83597726  1696","NORAD_CAT_ID":"49169","MEAN_MOTION_DDOT":"0.0000000000000","TIME_SYSTEM":"UTC","OBJECT_TYPE":"PAYLOAD","CLASSIFICATION_TYPE":"U","BSTAR":"-0.00538660000000","LAUNCH_DATE":"2021-09-14","DECAY_DATE":null,"MEAN_MOTION":"15.83597726","COUNTRY_CODE":"US","PERIAPSIS":"306.541","EPOCH":"2021-09-22T20:00:01.000224","FILE":"3123736","RA_OF_ASC_NODE":"102.4900","EPHEMERIS_TYPE":"0","MEAN_ANOMALY":"348.9826","PERIOD":"90.932","APOAPSIS":"334.015","RCS_SIZE":null,"SEMIMAJOR_AXIS":"6698.413","ECCENTRICITY":"0.00205080","GP_ID":"185270190","ELEMENT_SET_NO":"999"}];
